[{"OBJECT_NAME":"HAWK-10B","OBJECT_ID":"2024-149CF","EPOCH":"2026-03-09T22:24:07.674624","MEAN_MOTION":14.96175068,"ECCENTRICITY":0.00063882,"INCLINATION":97.6865,"RA_OF_ASC_NODE":146.0046,"ARG_OF_PERICENTER":71.247,"MEAN_ANOMALY":288.9444,"EPHEMERIS_TYPE":0,"CLASSIFICATION_TYPE":"U","NORAD_CAT_ID":60545,"ELEMENT_SET_NO":999,"REV_AT_EPOCH":8514,"BSTAR":0.00020768682,"MEAN_MOTION_DOT":2.283e-5,"MEAN_MOTION_DDOT":0},{"OBJECT_NAME":"STARLINK-35966","OBJECT_ID":"2025-280A","EPOCH":"2026-03-09T23:21:18.593568","MEAN_MOTION":14.98332696,"ECCENTRICITY":0.00028489,"INCLINATION":70.0017,"RA_OF_ASC_NODE":333.9298,"ARG_OF_PERICENTER":271.3712,"MEAN_ANOMALY":88.7121,"EPHEMERIS_TYPE":0,"CLASSIFICATION_TYPE":"U","NORAD_CAT_ID":66821,"ELEMENT_SET_NO":999,"REV_AT_EPOCH":1611,"BSTAR":0.00025589932,"MEAN_MOTION_DOT":2.962e-5,"MEAN_MOTION_DDOT":0}]
